[{"OBJECT_NAME":"STARLINK-31295","OBJECT_ID":"2024-041X","EPOCH":"2026-03-09T23:06:58.173984","MEAN_MOTION":15.27581908,"ECCENTRICITY":8.333e-5,"INCLINATION":43.0041,"RA_OF_ASC_NODE":309.1303,"ARG_OF_PERICENTER":269.5554,"MEAN_ANOMALY":90.5202,"EPHEMERIS_TYPE":0,"CLASSIFICATION_TYPE":"U","NORAD_CAT_ID":59095,"ELEMENT_SET_NO":999,"REV_AT_EPOCH":11431,"BSTAR":-6.6536373e-5,"MEAN_MOTION_DOT":-2.092e-5,"MEAN_MOTION_DDOT":0},{"OBJECT_NAME":"FENGYUN 1C DEB","OBJECT_ID":"1999-025CAL","EPOCH":"2026-03-09T07:00:43.678944","MEAN_MOTION":15.11095595,"ECCENTRICITY":0.01530884,"INCLINATION":98.0969,"RA_OF_ASC_NODE":245.5084,"ARG_OF_PERICENTER":64.0772,"MEAN_ANOMALY":297.6143,"EPHEMERIS_TYPE":0,"CLASSIFICATION_TYPE":"U","NORAD_CAT_ID":31630,"ELEMENT_SET_NO":999,"REV_AT_EPOCH":99895,"BSTAR":0.00096285175,"MEAN_MOTION_DOT":0.00021366,"MEAN_MOTION_DDOT":0}]
